{
 "type": "FeatureCollection",
 "features": [
  {
   "type": "Feature",
   "properties": {
    "group": 1,
    "acres": 134.9
   },
   "geometry": {
    "type": "Polygon",
    "coordinates": [
     [
      [
       -88.040775,
       42.312877
      ],
      [
       -88.040747,
       42.312743
      ],
      [
       -88.040743,
       42.312674
      ],
      [
       -88.040744,
       42.312537
      ],
      [
       -88.040744,
       42.312125
      ],
      [
       -88.040745,
       42.311988
      ],
      [
       -88.040745,
       42.311577
      ],
      [
       -88.040746,
       42.311439
      ],
      [
       -88.040746,
       42.311028
      ],
      [
       -88.040747,
       42.310891
      ],
      [
       -88.040747,
       42.310479
      ],
      [
       -88.040748,
       42.310342
      ],
      [
       -88.040748,
       42.30993
      ],
      [
       -88.040749,
       42.309793
      ],
      [
       -88.040749,
       42.309381
      ],
      [
       -88.04075,
       42.309244
      ],
      [
       -88.04075,
       42.308833
      ],
      [
       -88.040751,
       42.308695
      ],
      [
       -88.040751,
       42.308421
      ],
      [
       -88.040742,
       42.308284
      ],
      [
       -88.040707,
       42.308147
      ],
      [
       -88.040642,
       42.308009
      ],
      [
       -88.040547,
       42.307872
      ],
      [
       -88.040448,
       42.307735
      ],
      [
       -88.040348,
       42.307597
      ],
      [
       -88.040248,
       42.30746
      ],
      [
       -88.040168,
       42.307323
      ],
      [
       -88.040117,
       42.307185
      ],
      [
       -88.040095,
       42.307048
      ],
      [
       -88.040093,
       42.306911
      ],
      [
       -88.040093,
       42.306774
      ],
      [
       -88.040094,
       42.306637
      ],
      [
       -88.040087,
       42.306558
      ],
      [
       -88.040062,
       42.30651
      ],
      [
       -88.040024,
       42.306474
      ],
      [
       -88.039948,
       42.306447
      ],
      [
       -88.038399,
       42.306445
      ],
      [
       -88.035775,
       42.306438
      ],
      [
       -88.035051,
       42.306423
      ],
      [
       -88.033579,
       42.306366
      ],
      [
       -88.03358,
       42.30646
      ],
      [
       -88.033631,
       42.310862
      ],
      [
       -88.033642421875,
       42.311862421875
      ],
      [
       -88.033618,
       42.309754
      ],
      [
       -88.02896,
       42.30976
      ],
      [
       -88.028981,
       42.311467
      ],
      [
       -88.028912,
       42.311467
      ],
      [
       -88.028926,
       42.312882
      ],
      [
       -88.033654,
       42.312862
      ],
      [
       -88.038513,
       42.312878
      ],
      [
       -88.040775,
       42.312877
      ]
     ],
     [
      [
       -88.038399,
       42.306445
      ],
      [
       -88.038403,
       42.306635
      ],
      [
       -88.038405,
       42.306772
      ],
      [
       -88.038408,
       42.306909
      ],
      [
       -88.03841,
       42.307047
      ],
      [
       -88.0384114783527,
       42.30714826715945
      ],
      [
       -88.038399,
       42.306445
      ]
     ],
     [
      [
       -88.038508,
       42.312604
      ],
      [
       -88.03850544525548,
       42.312464
      ],
      [
       -88.038507,
       42.312535
      ],
      [
       -88.038508,
       42.312604
      ]
     ],
     [
      [
       -88.038503,
       42.31233
      ],
      [
       -88.03850098895028,
       42.31221482872928
      ],
      [
       -88.038502,
       42.312261
      ],
      [
       -88.038503,
       42.31233
      ]
     ],
     [
      [
       -88.03849703278688,
       42.31198826229508
      ],
      [
       -88.03849303093922,
       42.31175907955801
      ],
      [
       -88.038495,
       42.311849
      ],
      [
       -88.038497,
       42.311986
      ],
      [
       -88.03849703278688,
       42.31198826229508
      ]
     ],
     [
      [
       -88.0384909349315,
       42.31163904280822
      ],
      [
       -88.03848909502763,
       42.31153367292818
      ],
      [
       -88.03849,
       42.311575
      ],
      [
       -88.0384909349315,
       42.31163904280822
      ]
     ],
     [
      [
       -88.03847882534247,
       42.3109455359589
      ],
      [
       -88.038477,
       42.310841
      ],
      [
       -88.038478,
       42.310889
      ],
      [
       -88.03847882534247,
       42.3109455359589
      ]
     ],
     [
      [
       -88.03847312373225,
       42.310622537525354
      ],
      [
       -88.03847285371702,
       42.31060731974421
      ],
      [
       -88.038473,
       42.310614
      ],
      [
       -88.03847312373225,
       42.310622537525354
      ]
     ],
     [
      [
       -88.03846748680043,
       42.31030484582893
      ],
      [
       -88.03846425742574,
       42.31012284158416
      ],
      [
       -88.038466,
       42.310203
      ],
      [
       -88.03846748680043,
       42.31030484582893
      ]
     ],
     [
      [
       -88.03846192713833,
       42.30999150897571
      ],
      [
       -88.0384599472422,
       42.30987992406075
      ],
      [
       -88.038461,
       42.309928
      ],
      [
       -88.03846192713833,
       42.30999150897571
      ]
     ],
     [
      [
       -88.03845606453154,
       42.309661098470364
      ],
      [
       -88.03845567625899,
       42.30963921582734
      ],
      [
       -88.038456,
       42.309654
      ],
      [
       -88.03845606453154,
       42.309661098470364
      ]
     ],
     [
      [
       -88.03845072544878,
       42.309360193241815
      ],
      [
       -88.03844704076738,
       42.3091525283773
      ],
      [
       -88.038449,
       42.309242
      ],
      [
       -88.03845072544878,
       42.309360193241815
      ]
     ],
     [
      [
       -88.03844508342134,
       42.30904221436114
      ],
      [
       -88.03844273019801,
       42.308909589108914
      ],
      [
       -88.038444,
       42.308968
      ],
      [
       -88.03844508342134,
       42.30904221436114
      ]
     ],
     [
      [
       -88.03843952375924,
       42.30872887750792
      ],
      [
       -88.03843413429257,
       42.30842513269384
      ],
      [
       -88.038437,
       42.308556
      ],
      [
       -88.038439,
       42.308693
      ],
      [
       -88.03843952375924,
       42.30872887750792
      ]
     ],
     [
      [
       -88.03843388173179,
       42.308410898627244
      ],
      [
       -88.03842979455446,
       42.308180549504954
      ],
      [
       -88.038432,
       42.308282
      ],
      [
       -88.03843388173179,
       42.308410898627244
      ]
     ],
     [
      [
       -88.03842832206969,
       42.30809756177403
      ],
      [
       -88.03842549880096,
       42.307938445243806
      ],
      [
       -88.038427,
       42.308007
      ],
      [
       -88.03842832206969,
       42.30809756177403
      ]
     ],
     [
      [
       -88.03842268004225,
       42.307779582893346
      ],
      [
       -88.03841259232614,
       42.30721104956035
      ],
      [
       -88.038415,
       42.307321
      ],
      [
       -88.038417,
       42.307458
      ],
      [
       -88.03842,
       42.307596
      ],
      [
       -88.038422,
       42.307733
      ],
      [
       -88.03842268004225,
       42.307779582893346
      ]
     ]
    ]
   }
  },
  {
   "type": "Feature",
   "properties": {
    "group": 2,
    "acres": 69.8
   },
   "geometry": {
    "type": "Polygon",
    "coordinates": [
     [
      [
       -88.052948,
       42.312859
      ],
      [
       -88.052927,
       42.310954
      ],
      [
       -88.052919,
       42.310195
      ],
      [
       -88.0529,
       42.310145
      ],
      [
       -88.052865,
       42.310103
      ],
      [
       -88.052819,
       42.310075
      ],
      [
       -88.052766,
       42.310064
      ],
      [
       -88.04187,
       42.310036
      ],
      [
       -88.041868,
       42.312463
      ],
      [
       -88.042976,
       42.312459
      ],
      [
       -88.041902,
       42.312463
      ],
      [
       -88.041931,
       42.312498
      ],
      [
       -88.042002,
       42.312557
      ],
      [
       -88.042084,
       42.312597
      ],
      [
       -88.042128,
       42.31261
      ],
      [
       -88.042725,
       42.312687
      ],
      [
       -88.042725,
       42.31287
      ],
      [
       -88.042976,
       42.312869
      ],
      [
       -88.048262,
       42.312863
      ],
      [
       -88.052948,
       42.312859
      ]
     ]
    ]
   }
  },
  {
   "type": "Feature",
   "properties": {
    "group": 3,
    "acres": 63.9
   },
   "geometry": {
    "type": "Polygon",
    "coordinates": [
     [
      [
       -88.052996,
       42.316264
      ],
      [
       -88.052958,
       42.313663
      ],
      [
       -88.052272,
       42.313662
      ],
      [
       -88.051349,
       42.313595
      ],
      [
       -88.045445,
       42.313597
      ],
      [
       -88.04528,
       42.313597
      ],
      [
       -88.044122,
       42.313755
      ],
      [
       -88.04303,
       42.313764
      ],
      [
       -88.042673,
       42.313726
      ],
      [
       -88.042656,
       42.313864
      ],
      [
       -88.0426,
       42.313878
      ],
      [
       -88.042569,
       42.313902
      ],
      [
       -88.042438,
       42.313955
      ],
      [
       -88.042404,
       42.313978
      ],
      [
       -88.041854,
       42.316079
      ],
      [
       -88.042187,
       42.316938
      ],
      [
       -88.042186,
       42.316999
      ],
      [
       -88.043438,
       42.316997
      ],
      [
       -88.043418,
       42.316037
      ],
      [
       -88.045449,
       42.316036
      ],
      [
       -88.048324,
       42.316035
      ],
      [
       -88.048329,
       42.316266
      ],
      [
       -88.052996,
       42.316264
      ]
     ]
    ]
   }
  },
  {
   "type": "Feature",
   "properties": {
    "group": 4,
    "acres": 18.8
   },
   "geometry": {
    "type": "Polygon",
    "coordinates": [
     [
      [
       -88.038552,
       42.315083
      ],
      [
       -88.038538,
       42.314327
      ],
      [
       -88.038522,
       42.313385
      ],
      [
       -88.033661,
       42.313385
      ],
      [
       -88.033675,
       42.314202
      ],
      [
       -88.033677,
       42.31433
      ],
      [
       -88.03369,
       42.315104
      ],
      [
       -88.038552,
       42.315083
      ]
     ]
    ]
   }
  }
 ],
 "metadata": {
  "title": "T5 ownership outline (57 parcels dissolved)",
  "source": "Lake County, Illinois GIS Division — Tax Parcel Information (layer 12)",
  "sourceUrl": "https://maps.lakecountyil.gov/arcgis/rest/services/GISMapping/WABParcels/MapServer/12",
  "query": "taxpayer_name LIKE 'T5%' AND MUNI_NAME = 'GRAYSLAKE'",
  "retrieved": "2026-08-05",
  "crs": "EPSG:4326",
  "simplification": "maxAllowableOffset 0.000005 deg (~0.55 m); removes collinear vertices only",
  "parcelCount": 57,
  "countyAcresSum": 287.82,
  "computedAcres": 287.4,
  "note": "Land recorded in T5 ownership. This is NOT the approved campus boundary, which the Village permits at up to 472 acres.",
  "groups": 4
 }
}