{
 "type": "FeatureCollection",
 "features": [
  {
   "type": "Feature",
   "properties": {
    "pin": "1010200018",
    "acres": 49.21,
    "owner": "T5@Chicago IV, LP",
    "saleAmount": 29356282,
    "saleDate": "2024-05-02"
   },
   "geometry": {
    "type": "Polygon",
    "coordinates": [
     [
      [
       -88.042976,
       42.312869
      ],
      [
       -88.042976,
       42.312459
      ],
      [
       -88.041868,
       42.312463
      ],
      [
       -88.04187,
       42.310036
      ],
      [
       -88.052766,
       42.310064
      ],
      [
       -88.052819,
       42.310075
      ],
      [
       -88.052865,
       42.310103
      ],
      [
       -88.0529,
       42.310145
      ],
      [
       -88.052919,
       42.310195
      ],
      [
       -88.052927,
       42.310954
      ],
      [
       -88.048232,
       42.310965
      ],
      [
       -88.048262,
       42.312863
      ],
      [
       -88.042976,
       42.312869
      ]
     ]
    ]
   }
  },
  {
   "type": "Feature",
   "properties": {
    "pin": "1011100009",
    "acres": 48.39,
    "owner": "T5@Chicago IV, LP",
    "saleAmount": 17000000,
    "saleDate": "2025-01-17"
   },
   "geometry": {
    "type": "Polygon",
    "coordinates": [
     [
      [
       -88.03358,
       42.30646
      ],
      [
       -88.033579,
       42.306366
      ],
      [
       -88.035051,
       42.306423
      ],
      [
       -88.035775,
       42.306438
      ],
      [
       -88.038399,
       42.306445
      ],
      [
       -88.038477,
       42.310841
      ],
      [
       -88.033631,
       42.310862
      ],
      [
       -88.03358,
       42.30646
      ]
     ]
    ]
   }
  },
  {
   "type": "Feature",
   "properties": {
    "pin": "1003400037",
    "acres": 43.81,
    "owner": "T5@Chicago IV, LP",
    "saleAmount": null,
    "saleDate": null
   },
   "geometry": {
    "type": "Polygon",
    "coordinates": [
     [
      [
       -88.045445,
       42.313597
      ],
      [
       -88.051349,
       42.313595
      ],
      [
       -88.052272,
       42.313662
      ],
      [
       -88.052958,
       42.313663
      ],
      [
       -88.052996,
       42.316264
      ],
      [
       -88.048329,
       42.316266
      ],
      [
       -88.048324,
       42.316035
      ],
      [
       -88.045449,
       42.316036
      ],
      [
       -88.045445,
       42.313597
      ]
     ]
    ]
   }
  },
  {
   "type": "Feature",
   "properties": {
    "pin": "1011200017",
    "acres": 33.05,
    "owner": "T5@Chicago IV, LP",
    "saleAmount": 3250000,
    "saleDate": "2025-05-06"
   },
   "geometry": {
    "type": "Polygon",
    "coordinates": [
     [
      [
       -88.028912,
       42.311467
      ],
      [
       -88.028981,
       42.311467
      ],
      [
       -88.02896,
       42.30976
      ],
      [
       -88.033618,
       42.309754
      ],
      [
       -88.033654,
       42.312862
      ],
      [
       -88.028926,
       42.312882
      ],
      [
       -88.028912,
       42.311467
      ]
     ]
    ]
   }
  },
  {
   "type": "Feature",
   "properties": {
    "pin": "1003400036",
    "acres": 20.19,
    "owner": "T5 @ Chicago Land Holdings LLC",
    "saleAmount": null,
    "saleDate": null
   },
   "geometry": {
    "type": "Polygon",
    "coordinates": [
     [
      [
       -88.042656,
       42.313864
      ],
      [
       -88.042673,
       42.313726
      ],
      [
       -88.04303,
       42.313764
      ],
      [
       -88.044122,
       42.313755
      ],
      [
       -88.04528,
       42.313597
      ],
      [
       -88.045445,
       42.313597
      ],
      [
       -88.045449,
       42.316036
      ],
      [
       -88.043418,
       42.316037
      ],
      [
       -88.043438,
       42.316997
      ],
      [
       -88.042186,
       42.316999
      ],
      [
       -88.042187,
       42.316938
      ],
      [
       -88.041854,
       42.316079
      ],
      [
       -88.042404,
       42.313978
      ],
      [
       -88.042438,
       42.313955
      ],
      [
       -88.042569,
       42.313902
      ],
      [
       -88.0426,
       42.313878
      ],
      [
       -88.042656,
       42.313864
      ]
     ]
    ]
   }
  },
  {
   "type": "Feature",
   "properties": {
    "pin": "1010200014",
    "acres": 20.18,
    "owner": "T5@Chicago IV, LP",
    "saleAmount": 29356282,
    "saleDate": "2024-05-02"
   },
   "geometry": {
    "type": "Polygon",
    "coordinates": [
     [
      [
       -88.048232,
       42.310965
      ],
      [
       -88.052927,
       42.310954
      ],
      [
       -88.052948,
       42.312859
      ],
      [
       -88.048262,
       42.312863
      ],
      [
       -88.048232,
       42.310965
      ]
     ]
    ]
   }
  },
  {
   "type": "Feature",
   "properties": {
    "pin": "1011100007",
    "acres": 16.35,
    "owner": "T5@Chicago IV, LP",
    "saleAmount": 17000000,
    "saleDate": "2025-01-17"
   },
   "geometry": {
    "type": "Polygon",
    "coordinates": [
     [
      [
       -88.033631,
       42.310862
      ],
      [
       -88.038477,
       42.310841
      ],
      [
       -88.038503,
       42.31233
      ],
      [
       -88.033648,
       42.312351
      ],
      [
       -88.033631,
       42.310862
      ]
     ]
    ]
   }
  },
  {
   "type": "Feature",
   "properties": {
    "pin": "1002300010",
    "acres": 10.37,
    "owner": "T5@Chicago IV, LP",
    "saleAmount": 17000000,
    "saleDate": "2025-01-17"
   },
   "geometry": {
    "type": "Polygon",
    "coordinates": [
     [
      [
       -88.033675,
       42.314202
      ],
      [
       -88.033661,
       42.313385
      ],
      [
       -88.038522,
       42.313385
      ],
      [
       -88.038538,
       42.314327
      ],
      [
       -88.033677,
       42.31433
      ],
      [
       -88.033675,
       42.314202
      ]
     ]
    ]
   }
  },
  {
   "type": "Feature",
   "properties": {
    "pin": "1002300019",
    "acres": 8.42,
    "owner": "T5@Chicago IV, LP",
    "saleAmount": 17000000,
    "saleDate": "2025-01-17"
   },
   "geometry": {
    "type": "Polygon",
    "coordinates": [
     [
      [
       -88.033677,
       42.31433
      ],
      [
       -88.038538,
       42.314327
      ],
      [
       -88.038552,
       42.315083
      ],
      [
       -88.03369,
       42.315104
      ],
      [
       -88.033677,
       42.31433
      ]
     ]
    ]
   }
  },
  {
   "type": "Feature",
   "properties": {
    "pin": "1011100005",
    "acres": 5.82,
    "owner": "T5@Chicago IV, LP",
    "saleAmount": 17000000,
    "saleDate": "2025-01-17"
   },
   "geometry": {
    "type": "Polygon",
    "coordinates": [
     [
      [
       -88.033654,
       42.312862
      ],
      [
       -88.033648,
       42.312351
      ],
      [
       -88.038503,
       42.31233
      ],
      [
       -88.038513,
       42.312878
      ],
      [
       -88.033654,
       42.312862
      ]
     ]
    ]
   }
  },
  {
   "type": "Feature",
   "properties": {
    "pin": "1011101001",
    "acres": 1.04,
    "owner": "T5@Chicago IV, LP",
    "saleAmount": 5592606,
    "saleDate": "2025-04-28"
   },
   "geometry": {
    "type": "Polygon",
    "coordinates": [
     [
      [
       -88.038509,
       42.312673
      ],
      [
       -88.040743,
       42.312674
      ],
      [
       -88.040747,
       42.312743
      ],
      [
       -88.040775,
       42.312877
      ],
      [
       -88.038513,
       42.312878
      ],
      [
       -88.038509,
       42.312673
      ]
     ]
    ]
   }
  },
  {
   "type": "Feature",
   "properties": {
    "pin": "1011101028",
    "acres": 0.72,
    "owner": "T5@Chicago IV, LP",
    "saleAmount": 7769362,
    "saleDate": "2025-04-25"
   },
   "geometry": {
    "type": "Polygon",
    "coordinates": [
     [
      [
       -88.038444,
       42.308968
      ],
      [
       -88.04075,
       42.30897
      ],
      [
       -88.04075,
       42.309107
      ],
      [
       -88.038446,
       42.309105
      ],
      [
       -88.038444,
       42.308968
      ]
     ]
    ]
   }
  },
  {
   "type": "Feature",
   "properties": {
    "pin": "1011101029",
    "acres": 0.72,
    "owner": "T5@Chicago IV, LP",
    "saleAmount": 7769362,
    "saleDate": "2025-04-25"
   },
   "geometry": {
    "type": "Polygon",
    "coordinates": [
     [
      [
       -88.038441,
       42.30883
      ],
      [
       -88.04075,
       42.308833
      ],
      [
       -88.04075,
       42.30897
      ],
      [
       -88.038444,
       42.308968
      ],
      [
       -88.038441,
       42.30883
      ]
     ]
    ]
   }
  },
  {
   "type": "Feature",
   "properties": {
    "pin": "1011101030",
    "acres": 0.72,
    "owner": "T5@Chicago IV, LP",
    "saleAmount": 7769362,
    "saleDate": "2025-04-25"
   },
   "geometry": {
    "type": "Polygon",
    "coordinates": [
     [
      [
       -88.038439,
       42.308693
      ],
      [
       -88.040751,
       42.308695
      ],
      [
       -88.04075,
       42.308833
      ],
      [
       -88.038441,
       42.30883
      ],
      [
       -88.038439,
       42.308693
      ]
     ]
    ]
   }
  },
  {
   "type": "Feature",
   "properties": {
    "pin": "1011101031",
    "acres": 0.72,
    "owner": "T5@Chicago IV, LP",
    "saleAmount": 7769362,
    "saleDate": "2025-04-25"
   },
   "geometry": {
    "type": "Polygon",
    "coordinates": [
     [
      [
       -88.038437,
       42.308556
      ],
      [
       -88.040751,
       42.308558
      ],
      [
       -88.040751,
       42.308695
      ],
      [
       -88.038439,
       42.308693
      ],
      [
       -88.038437,
       42.308556
      ]
     ]
    ]
   }
  },
  {
   "type": "Feature",
   "properties": {
    "pin": "1011101032",
    "acres": 0.72,
    "owner": "T5@Chicago IV, LP",
    "saleAmount": 7769362,
    "saleDate": "2025-04-25"
   },
   "geometry": {
    "type": "Polygon",
    "coordinates": [
     [
      [
       -88.038434,
       42.308419
      ],
      [
       -88.040751,
       42.308421
      ],
      [
       -88.040751,
       42.308558
      ],
      [
       -88.038437,
       42.308556
      ],
      [
       -88.038434,
       42.308419
      ]
     ]
    ]
   }
  },
  {
   "type": "Feature",
   "properties": {
    "pin": "1011101033",
    "acres": 0.72,
    "owner": "T5@Chicago IV, LP",
    "saleAmount": 7769362,
    "saleDate": "2025-04-25"
   },
   "geometry": {
    "type": "Polygon",
    "coordinates": [
     [
      [
       -88.038432,
       42.308282
      ],
      [
       -88.040742,
       42.308284
      ],
      [
       -88.040751,
       42.308421
      ],
      [
       -88.038434,
       42.308419
      ],
      [
       -88.038432,
       42.308282
      ]
     ]
    ]
   }
  },
  {
   "type": "Feature",
   "properties": {
    "pin": "1011101046",
    "acres": 0.72,
    "owner": "T5@Chicago IV, LP",
    "saleAmount": 7769362,
    "saleDate": "2025-04-25"
   },
   "geometry": {
    "type": "Polygon",
    "coordinates": [
     [
      [
       -88.038399,
       42.306445
      ],
      [
       -88.039948,
       42.306447
      ],
      [
       -88.040024,
       42.306474
      ],
      [
       -88.040062,
       42.30651
      ],
      [
       -88.040087,
       42.306558
      ],
      [
       -88.040094,
       42.306637
      ],
      [
       -88.038403,
       42.306635
      ],
      [
       -88.038399,
       42.306445
      ]
     ]
    ]
   }
  },
  {
   "type": "Feature",
   "properties": {
    "pin": "1011101017",
    "acres": 0.71,
    "owner": "T5@Chicago IV, LP",
    "saleAmount": 5592606,
    "saleDate": "2025-04-28"
   },
   "geometry": {
    "type": "Polygon",
    "coordinates": [
     [
      [
       -88.03847,
       42.310477
      ],
      [
       -88.040747,
       42.310479
      ],
      [
       -88.040747,
       42.310616
      ],
      [
       -88.038473,
       42.310614
      ],
      [
       -88.03847,
       42.310477
      ]
     ]
    ]
   }
  },
  {
   "type": "Feature",
   "properties": {
    "pin": "1011101018",
    "acres": 0.71,
    "owner": "T5@Chicago IV, LP",
    "saleAmount": 5592606,
    "saleDate": "2025-04-28"
   },
   "geometry": {
    "type": "Polygon",
    "coordinates": [
     [
      [
       -88.038468,
       42.31034
      ],
      [
       -88.040748,
       42.310342
      ],
      [
       -88.040747,
       42.310479
      ],
      [
       -88.03847,
       42.310477
      ],
      [
       -88.038468,
       42.31034
      ]
     ]
    ]
   }
  },
  {
   "type": "Feature",
   "properties": {
    "pin": "1011101019",
    "acres": 0.71,
    "owner": "T5@Chicago IV, LP",
    "saleAmount": 5592606,
    "saleDate": "2025-04-28"
   },
   "geometry": {
    "type": "Polygon",
    "coordinates": [
     [
      [
       -88.038466,
       42.310203
      ],
      [
       -88.040748,
       42.310205
      ],
      [
       -88.040748,
       42.310342
      ],
      [
       -88.038468,
       42.31034
      ],
      [
       -88.038466,
       42.310203
      ]
     ]
    ]
   }
  },
  {
   "type": "Feature",
   "properties": {
    "pin": "1011101020",
    "acres": 0.71,
    "owner": "T5@Chicago IV, LP",
    "saleAmount": 7769362,
    "saleDate": "2025-04-25"
   },
   "geometry": {
    "type": "Polygon",
    "coordinates": [
     [
      [
       -88.038463,
       42.310065
      ],
      [
       -88.040748,
       42.310067
      ],
      [
       -88.040748,
       42.310205
      ],
      [
       -88.038466,
       42.310203
      ],
      [
       -88.038463,
       42.310065
      ]
     ]
    ]
   }
  },
  {
   "type": "Feature",
   "properties": {
    "pin": "1011101021",
    "acres": 0.71,
    "owner": "T5@Chicago IV, LP",
    "saleAmount": 7769362,
    "saleDate": "2025-04-25"
   },
   "geometry": {
    "type": "Polygon",
    "coordinates": [
     [
      [
       -88.038461,
       42.309928
      ],
      [
       -88.040748,
       42.30993
      ],
      [
       -88.040748,
       42.310067
      ],
      [
       -88.038463,
       42.310065
      ],
      [
       -88.038461,
       42.309928
      ]
     ]
    ]
   }
  },
  {
   "type": "Feature",
   "properties": {
    "pin": "1011101022",
    "acres": 0.71,
    "owner": "T5@Chicago IV, LP",
    "saleAmount": 7769362,
    "saleDate": "2025-04-25"
   },
   "geometry": {
    "type": "Polygon",
    "coordinates": [
     [
      [
       -88.038458,
       42.309791
      ],
      [
       -88.040749,
       42.309793
      ],
      [
       -88.040748,
       42.30993
      ],
      [
       -88.038461,
       42.309928
      ],
      [
       -88.038458,
       42.309791
      ]
     ]
    ]
   }
  },
  {
   "type": "Feature",
   "properties": {
    "pin": "1011101023",
    "acres": 0.71,
    "owner": "T5@Chicago IV, LP",
    "saleAmount": 7769362,
    "saleDate": "2025-04-25"
   },
   "geometry": {
    "type": "Polygon",
    "coordinates": [
     [
      [
       -88.038457,
       42.309764
      ],
      [
       -88.038456,
       42.309654
      ],
      [
       -88.040749,
       42.309656
      ],
      [
       -88.040749,
       42.309793
      ],
      [
       -88.038458,
       42.309791
      ],
      [
       -88.038457,
       42.309764
      ]
     ]
    ]
   }
  },
  {
   "type": "Feature",
   "properties": {
    "pin": "1011101024",
    "acres": 0.71,
    "owner": "T5@Chicago IV, LP",
    "saleAmount": 7769362,
    "saleDate": "2025-04-25"
   },
   "geometry": {
    "type": "Polygon",
    "coordinates": [
     [
      [
       -88.038453,
       42.309517
      ],
      [
       -88.040749,
       42.309519
      ],
      [
       -88.040749,
       42.309656
      ],
      [
       -88.038456,
       42.309654
      ],
      [
       -88.038453,
       42.309517
      ]
     ]
    ]
   }
  },
  {
   "type": "Feature",
   "properties": {
    "pin": "1011101025",
    "acres": 0.71,
    "owner": "T5@Chicago IV, LP",
    "saleAmount": 7769362,
    "saleDate": "2025-04-25"
   },
   "geometry": {
    "type": "Polygon",
    "coordinates": [
     [
      [
       -88.038451,
       42.309379
      ],
      [
       -88.040749,
       42.309381
      ],
      [
       -88.040749,
       42.309519
      ],
      [
       -88.038453,
       42.309517
      ],
      [
       -88.038451,
       42.309379
      ]
     ]
    ]
   }
  },
  {
   "type": "Feature",
   "properties": {
    "pin": "1011101016",
    "acres": 0.71,
    "owner": "T5@Chicago IV, LP",
    "saleAmount": 5592606,
    "saleDate": "2025-04-28"
   },
   "geometry": {
    "type": "Polygon",
    "coordinates": [
     [
      [
       -88.038473,
       42.310614
      ],
      [
       -88.040747,
       42.310616
      ],
      [
       -88.040747,
       42.310753
      ],
      [
       -88.038475,
       42.310752
      ],
      [
       -88.038473,
       42.310614
      ]
     ]
    ]
   }
  },
  {
   "type": "Feature",
   "properties": {
    "pin": "1011101026",
    "acres": 0.71,
    "owner": "T5@Chicago IV, LP",
    "saleAmount": 7769362,
    "saleDate": "2025-04-25"
   },
   "geometry": {
    "type": "Polygon",
    "coordinates": [
     [
      [
       -88.038449,
       42.309242
      ],
      [
       -88.04075,
       42.309244
      ],
      [
       -88.040749,
       42.309381
      ],
      [
       -88.038451,
       42.309379
      ],
      [
       -88.038449,
       42.309242
      ]
     ]
    ]
   }
  },
  {
   "type": "Feature",
   "properties": {
    "pin": "1011101027",
    "acres": 0.71,
    "owner": "T5@Chicago IV, LP",
    "saleAmount": 7769362,
    "saleDate": "2025-04-25"
   },
   "geometry": {
    "type": "Polygon",
    "coordinates": [
     [
      [
       -88.038446,
       42.309105
      ],
      [
       -88.04075,
       42.309107
      ],
      [
       -88.04075,
       42.309244
      ],
      [
       -88.038449,
       42.309242
      ],
      [
       -88.038446,
       42.309105
      ]
     ]
    ]
   }
  },
  {
   "type": "Feature",
   "properties": {
    "pin": "1011101034",
    "acres": 0.71,
    "owner": "T5@Chicago IV, LP",
    "saleAmount": 7769362,
    "saleDate": "2025-04-25"
   },
   "geometry": {
    "type": "Polygon",
    "coordinates": [
     [
      [
       -88.038429,
       42.308144
      ],
      [
       -88.040707,
       42.308147
      ],
      [
       -88.040742,
       42.308284
      ],
      [
       -88.038432,
       42.308282
      ],
      [
       -88.038429,
       42.308144
      ]
     ]
    ]
   }
  },
  {
   "type": "Feature",
   "properties": {
    "pin": "1011101003",
    "acres": 0.7,
    "owner": "T5@Chicago IV, LP",
    "saleAmount": 5592606,
    "saleDate": "2025-04-28"
   },
   "geometry": {
    "type": "Polygon",
    "coordinates": [
     [
      [
       -88.038504,
       42.312398
      ],
      [
       -88.040744,
       42.3124
      ],
      [
       -88.040744,
       42.312537
      ],
      [
       -88.038507,
       42.312535
      ],
      [
       -88.038504,
       42.312398
      ]
     ]
    ]
   }
  },
  {
   "type": "Feature",
   "properties": {
    "pin": "1011101004",
    "acres": 0.7,
    "owner": "T5@Chicago IV, LP",
    "saleAmount": 5592606,
    "saleDate": "2025-04-28"
   },
   "geometry": {
    "type": "Polygon",
    "coordinates": [
     [
      [
       -88.038503,
       42.31233
      ],
      [
       -88.038502,
       42.312261
      ],
      [
       -88.040744,
       42.312263
      ],
      [
       -88.040744,
       42.3124
      ],
      [
       -88.038504,
       42.312398
      ],
      [
       -88.038503,
       42.31233
      ]
     ]
    ]
   }
  },
  {
   "type": "Feature",
   "properties": {
    "pin": "1011101005",
    "acres": 0.7,
    "owner": "T5@Chicago IV, LP",
    "saleAmount": 5592606,
    "saleDate": "2025-04-28"
   },
   "geometry": {
    "type": "Polygon",
    "coordinates": [
     [
      [
       -88.038499,
       42.312124
      ],
      [
       -88.040744,
       42.312125
      ],
      [
       -88.040744,
       42.312263
      ],
      [
       -88.038502,
       42.312261
      ],
      [
       -88.038499,
       42.312124
      ]
     ]
    ]
   }
  },
  {
   "type": "Feature",
   "properties": {
    "pin": "1011101006",
    "acres": 0.7,
    "owner": "T5@Chicago IV, LP",
    "saleAmount": 5592606,
    "saleDate": "2025-04-28"
   },
   "geometry": {
    "type": "Polygon",
    "coordinates": [
     [
      [
       -88.038497,
       42.311986
      ],
      [
       -88.040745,
       42.311988
      ],
      [
       -88.040744,
       42.312125
      ],
      [
       -88.038499,
       42.312124
      ],
      [
       -88.038497,
       42.311986
      ]
     ]
    ]
   }
  },
  {
   "type": "Feature",
   "properties": {
    "pin": "1011101007",
    "acres": 0.7,
    "owner": "T5@Chicago IV, LP",
    "saleAmount": 5592606,
    "saleDate": "2025-04-28"
   },
   "geometry": {
    "type": "Polygon",
    "coordinates": [
     [
      [
       -88.038495,
       42.311849
      ],
      [
       -88.040745,
       42.311851
      ],
      [
       -88.040745,
       42.311988
      ],
      [
       -88.038497,
       42.311986
      ],
      [
       -88.038495,
       42.311849
      ]
     ]
    ]
   }
  },
  {
   "type": "Feature",
   "properties": {
    "pin": "1011101008",
    "acres": 0.7,
    "owner": "T5@Chicago IV, LP",
    "saleAmount": 5592606,
    "saleDate": "2025-04-28"
   },
   "geometry": {
    "type": "Polygon",
    "coordinates": [
     [
      [
       -88.038492,
       42.311712
      ],
      [
       -88.040745,
       42.311714
      ],
      [
       -88.040745,
       42.311851
      ],
      [
       -88.038495,
       42.311849
      ],
      [
       -88.038492,
       42.311712
      ]
     ]
    ]
   }
  },
  {
   "type": "Feature",
   "properties": {
    "pin": "1011101009",
    "acres": 0.7,
    "owner": "T5@Chicago IV, LP",
    "saleAmount": 5592606,
    "saleDate": "2025-04-28"
   },
   "geometry": {
    "type": "Polygon",
    "coordinates": [
     [
      [
       -88.03849,
       42.311575
      ],
      [
       -88.040745,
       42.311577
      ],
      [
       -88.040745,
       42.311714
      ],
      [
       -88.038492,
       42.311712
      ],
      [
       -88.03849,
       42.311575
      ]
     ]
    ]
   }
  },
  {
   "type": "Feature",
   "properties": {
    "pin": "1011101010",
    "acres": 0.7,
    "owner": "T5@Chicago IV, LP",
    "saleAmount": 5592606,
    "saleDate": "2025-04-28"
   },
   "geometry": {
    "type": "Polygon",
    "coordinates": [
     [
      [
       -88.038487,
       42.311438
      ],
      [
       -88.040746,
       42.311439
      ],
      [
       -88.040745,
       42.311577
      ],
      [
       -88.03849,
       42.311575
      ],
      [
       -88.038487,
       42.311438
      ]
     ]
    ]
   }
  },
  {
   "type": "Feature",
   "properties": {
    "pin": "1011101011",
    "acres": 0.7,
    "owner": "T5@Chicago IV, LP",
    "saleAmount": 5592606,
    "saleDate": "2025-04-28"
   },
   "geometry": {
    "type": "Polygon",
    "coordinates": [
     [
      [
       -88.038485,
       42.3113
      ],
      [
       -88.040746,
       42.311302
      ],
      [
       -88.040746,
       42.311439
      ],
      [
       -88.038487,
       42.311438
      ],
      [
       -88.038485,
       42.3113
      ]
     ]
    ]
   }
  },
  {
   "type": "Feature",
   "properties": {
    "pin": "1011101012",
    "acres": 0.7,
    "owner": "T5@Chicago IV, LP",
    "saleAmount": 5592606,
    "saleDate": "2025-04-28"
   },
   "geometry": {
    "type": "Polygon",
    "coordinates": [
     [
      [
       -88.038482,
       42.311163
      ],
      [
       -88.040746,
       42.311165
      ],
      [
       -88.040746,
       42.311302
      ],
      [
       -88.038485,
       42.3113
      ],
      [
       -88.038482,
       42.311163
      ]
     ]
    ]
   }
  },
  {
   "type": "Feature",
   "properties": {
    "pin": "1011101013",
    "acres": 0.7,
    "owner": "T5@Chicago IV, LP",
    "saleAmount": 5592606,
    "saleDate": "2025-04-28"
   },
   "geometry": {
    "type": "Polygon",
    "coordinates": [
     [
      [
       -88.03848,
       42.311026
      ],
      [
       -88.040746,
       42.311028
      ],
      [
       -88.040746,
       42.311165
      ],
      [
       -88.038482,
       42.311163
      ],
      [
       -88.03848,
       42.311026
      ]
     ]
    ]
   }
  },
  {
   "type": "Feature",
   "properties": {
    "pin": "1011101014",
    "acres": 0.7,
    "owner": "T5@Chicago IV, LP",
    "saleAmount": 5592606,
    "saleDate": "2025-04-28"
   },
   "geometry": {
    "type": "Polygon",
    "coordinates": [
     [
      [
       -88.038478,
       42.310889
      ],
      [
       -88.040747,
       42.310891
      ],
      [
       -88.040746,
       42.311028
      ],
      [
       -88.03848,
       42.311026
      ],
      [
       -88.038478,
       42.310889
      ]
     ]
    ]
   }
  },
  {
   "type": "Feature",
   "properties": {
    "pin": "1011101015",
    "acres": 0.7,
    "owner": "T5@Chicago IV, LP",
    "saleAmount": 5592606,
    "saleDate": "2025-04-28"
   },
   "geometry": {
    "type": "Polygon",
    "coordinates": [
     [
      [
       -88.038477,
       42.310841
      ],
      [
       -88.038475,
       42.310752
      ],
      [
       -88.040747,
       42.310753
      ],
      [
       -88.040747,
       42.310891
      ],
      [
       -88.038478,
       42.310889
      ],
      [
       -88.038477,
       42.310841
      ]
     ]
    ]
   }
  },
  {
   "type": "Feature",
   "properties": {
    "pin": "1011101035",
    "acres": 0.7,
    "owner": "T5@Chicago IV, LP",
    "saleAmount": 7769362,
    "saleDate": "2025-04-25"
   },
   "geometry": {
    "type": "Polygon",
    "coordinates": [
     [
      [
       -88.038427,
       42.308007
      ],
      [
       -88.040642,
       42.308009
      ],
      [
       -88.040707,
       42.308147
      ],
      [
       -88.038429,
       42.308144
      ],
      [
       -88.038427,
       42.308007
      ]
     ]
    ]
   }
  },
  {
   "type": "Feature",
   "properties": {
    "pin": "1011101002",
    "acres": 0.69,
    "owner": "T5@Chicago IV, LP",
    "saleAmount": 5592606,
    "saleDate": "2025-04-28"
   },
   "geometry": {
    "type": "Polygon",
    "coordinates": [
     [
      [
       -88.038507,
       42.312535
      ],
      [
       -88.040744,
       42.312537
      ],
      [
       -88.040743,
       42.312674
      ],
      [
       -88.038509,
       42.312673
      ],
      [
       -88.038507,
       42.312535
      ]
     ]
    ]
   }
  },
  {
   "type": "Feature",
   "properties": {
    "pin": "1011101036",
    "acres": 0.67,
    "owner": "T5@Chicago IV, LP",
    "saleAmount": 7769362,
    "saleDate": "2025-04-25"
   },
   "geometry": {
    "type": "Polygon",
    "coordinates": [
     [
      [
       -88.038424,
       42.30787
      ],
      [
       -88.040547,
       42.307872
      ],
      [
       -88.040642,
       42.308009
      ],
      [
       -88.038427,
       42.308007
      ],
      [
       -88.038424,
       42.30787
      ]
     ]
    ]
   }
  },
  {
   "type": "Feature",
   "properties": {
    "pin": "1011101037",
    "acres": 0.64,
    "owner": "T5@Chicago IV, LP",
    "saleAmount": 7769362,
    "saleDate": "2025-04-25"
   },
   "geometry": {
    "type": "Polygon",
    "coordinates": [
     [
      [
       -88.038422,
       42.307733
      ],
      [
       -88.040448,
       42.307735
      ],
      [
       -88.040547,
       42.307872
      ],
      [
       -88.038424,
       42.30787
      ],
      [
       -88.038422,
       42.307733
      ]
     ]
    ]
   }
  },
  {
   "type": "Feature",
   "properties": {
    "pin": "1011101038",
    "acres": 0.61,
    "owner": "T5@Chicago IV, LP",
    "saleAmount": 7769362,
    "saleDate": "2025-04-25"
   },
   "geometry": {
    "type": "Polygon",
    "coordinates": [
     [
      [
       -88.03842,
       42.307596
      ],
      [
       -88.040348,
       42.307597
      ],
      [
       -88.040448,
       42.307735
      ],
      [
       -88.038422,
       42.307733
      ],
      [
       -88.03842,
       42.307596
      ]
     ]
    ]
   }
  },
  {
   "type": "Feature",
   "properties": {
    "pin": "1011101039",
    "acres": 0.58,
    "owner": "T5@Chicago IV, LP",
    "saleAmount": 7769362,
    "saleDate": "2025-04-25"
   },
   "geometry": {
    "type": "Polygon",
    "coordinates": [
     [
      [
       -88.038417,
       42.307458
      ],
      [
       -88.040248,
       42.30746
      ],
      [
       -88.040348,
       42.307597
      ],
      [
       -88.03842,
       42.307596
      ],
      [
       -88.038417,
       42.307458
      ]
     ]
    ]
   }
  },
  {
   "type": "Feature",
   "properties": {
    "pin": "1011101040",
    "acres": 0.56,
    "owner": "T5@Chicago IV, LP",
    "saleAmount": 7769362,
    "saleDate": "2025-04-25"
   },
   "geometry": {
    "type": "Polygon",
    "coordinates": [
     [
      [
       -88.038415,
       42.307321
      ],
      [
       -88.040168,
       42.307323
      ],
      [
       -88.040248,
       42.30746
      ],
      [
       -88.038417,
       42.307458
      ],
      [
       -88.038415,
       42.307321
      ]
     ]
    ]
   }
  },
  {
   "type": "Feature",
   "properties": {
    "pin": "1010201002",
    "acres": 0.54,
    "owner": "T5@Chicago IV, LP",
    "saleAmount": 29356282,
    "saleDate": "2024-05-02"
   },
   "geometry": {
    "type": "Polygon",
    "coordinates": [
     [
      [
       -88.041902,
       42.312463
      ],
      [
       -88.042976,
       42.312459
      ],
      [
       -88.042976,
       42.312869
      ],
      [
       -88.042725,
       42.31287
      ],
      [
       -88.042725,
       42.312687
      ],
      [
       -88.042128,
       42.31261
      ],
      [
       -88.042084,
       42.312597
      ],
      [
       -88.042002,
       42.312557
      ],
      [
       -88.041931,
       42.312498
      ],
      [
       -88.041902,
       42.312463
      ]
     ]
    ]
   }
  },
  {
   "type": "Feature",
   "properties": {
    "pin": "1011101041",
    "acres": 0.54,
    "owner": "T5@Chicago IV, LP",
    "saleAmount": 7769362,
    "saleDate": "2025-04-25"
   },
   "geometry": {
    "type": "Polygon",
    "coordinates": [
     [
      [
       -88.038412,
       42.307184
      ],
      [
       -88.040117,
       42.307185
      ],
      [
       -88.040168,
       42.307323
      ],
      [
       -88.038415,
       42.307321
      ],
      [
       -88.038412,
       42.307184
      ]
     ]
    ]
   }
  },
  {
   "type": "Feature",
   "properties": {
    "pin": "1011101042",
    "acres": 0.53,
    "owner": "T5@Chicago IV, LP",
    "saleAmount": 7769362,
    "saleDate": "2025-04-25"
   },
   "geometry": {
    "type": "Polygon",
    "coordinates": [
     [
      [
       -88.03841,
       42.307047
      ],
      [
       -88.040095,
       42.307048
      ],
      [
       -88.040117,
       42.307185
      ],
      [
       -88.038412,
       42.307184
      ],
      [
       -88.03841,
       42.307047
      ]
     ]
    ]
   }
  },
  {
   "type": "Feature",
   "properties": {
    "pin": "1011101043",
    "acres": 0.52,
    "owner": "T5@Chicago IV, LP",
    "saleAmount": 7769362,
    "saleDate": "2025-04-25"
   },
   "geometry": {
    "type": "Polygon",
    "coordinates": [
     [
      [
       -88.038408,
       42.306909
      ],
      [
       -88.040093,
       42.306911
      ],
      [
       -88.040095,
       42.307048
      ],
      [
       -88.03841,
       42.307047
      ],
      [
       -88.038408,
       42.306909
      ]
     ]
    ]
   }
  },
  {
   "type": "Feature",
   "properties": {
    "pin": "1011101044",
    "acres": 0.52,
    "owner": "T5@Chicago IV, LP",
    "saleAmount": 7769362,
    "saleDate": "2025-04-25"
   },
   "geometry": {
    "type": "Polygon",
    "coordinates": [
     [
      [
       -88.038405,
       42.306772
      ],
      [
       -88.040093,
       42.306774
      ],
      [
       -88.040093,
       42.306911
      ],
      [
       -88.038408,
       42.306909
      ],
      [
       -88.038405,
       42.306772
      ]
     ]
    ]
   }
  },
  {
   "type": "Feature",
   "properties": {
    "pin": "1011101045",
    "acres": 0.52,
    "owner": "T5@Chicago IV, LP",
    "saleAmount": 7769362,
    "saleDate": "2025-04-25"
   },
   "geometry": {
    "type": "Polygon",
    "coordinates": [
     [
      [
       -88.038403,
       42.306635
      ],
      [
       -88.040094,
       42.306637
      ],
      [
       -88.040093,
       42.306774
      ],
      [
       -88.038405,
       42.306772
      ],
      [
       -88.038403,
       42.306635
      ]
     ]
    ]
   }
  }
 ],
 "metadata": {
  "title": "T5-owned parcels, Grayslake, Illinois",
  "source": "Lake County, Illinois GIS Division — Tax Parcel Information (layer 12)",
  "sourceUrl": "https://maps.lakecountyil.gov/arcgis/rest/services/GISMapping/WABParcels/MapServer/12",
  "query": "taxpayer_name LIKE 'T5%' AND MUNI_NAME = 'GRAYSLAKE'",
  "retrieved": "2026-08-05",
  "crs": "EPSG:4326",
  "simplification": "maxAllowableOffset 0.000005 deg (~0.55 m); removes collinear vertices only",
  "parcelCount": 57,
  "countyAcresSum": 287.82,
  "computedAcres": 287.4,
  "note": "Land recorded in T5 ownership. This is NOT the approved campus boundary, which the Village permits at up to 472 acres."
 }
}